CCSDS_OMM_VERS = 2.0
CREATION_DATE  = 
ORIGINATOR     = 

OBJECT_NAME    = SL-16 R/B
OBJECT_ID      = 1993-016B
CENTER_NAME    = EARTH
REF_FRAME      = TEME
TIME_SYSTEM    = UTC
MEAN_ELEMENT_THEORY = SGP/SGP4

EPOCH          = 2026-02-28T22:41:12.893568
MEAN_MOTION    = 14.15303221
ECCENTRICITY   = .0011185
INCLINATION    = 71.0052
RA_OF_ASC_NODE = 233.5474
ARG_OF_PERICENTER = 326.4891
MEAN_ANOMALY   = 33.5523

EPHEMERIS_TYPE = 0
CLASSIFICATION_TYPE = U
NORAD_CAT_ID   = 22566
ELEMENT_SET_NO = 999
REV_AT_EPOCH   = 70093
BSTAR          = .19387E-3
MEAN_MOTION_DOT = .33E-5
MEAN_MOTION_DDOT = 0

CCSDS_OMM_VERS = 2.0
CREATION_DATE  = 
ORIGINATOR     = 

OBJECT_NAME    = COSMOS 2242
OBJECT_ID      = 1993-024A
CENTER_NAME    = EARTH
REF_FRAME      = TEME
TIME_SYSTEM    = UTC
MEAN_ELEMENT_THEORY = SGP/SGP4

EPOCH          = 2026-03-01T01:51:32.065344
MEAN_MOTION    = 14.96507706
ECCENTRICITY   = .0015846
INCLINATION    = 82.5160
RA_OF_ASC_NODE = 274.9559
ARG_OF_PERICENTER = 339.6210
MEAN_ANOMALY   = 20.4378

EPHEMERIS_TYPE = 0
CLASSIFICATION_TYPE = U
NORAD_CAT_ID   = 22626
ELEMENT_SET_NO = 999
REV_AT_EPOCH   = 77910
BSTAR          = .17747162E-3
MEAN_MOTION_DOT = .2046E-4
MEAN_MOTION_DDOT = 0

CCSDS_OMM_VERS = 2.0
CREATION_DATE  = 
ORIGINATOR     = 

OBJECT_NAME    = SL-16 R/B
OBJECT_ID      = 1993-059B
CENTER_NAME    = EARTH
REF_FRAME      = TEME
TIME_SYSTEM    = UTC
MEAN_ELEMENT_THEORY = SGP/SGP4

EPOCH          = 2026-03-01T06:56:51.370080
MEAN_MOTION    = 14.17231476
ECCENTRICITY   = .00188765
INCLINATION    = 70.9913
RA_OF_ASC_NODE = 28.8395
ARG_OF_PERICENTER = 228.2734
MEAN_ANOMALY   = 131.6776

EPHEMERIS_TYPE = 0
CLASSIFICATION_TYPE = U
NORAD_CAT_ID   = 22803
ELEMENT_SET_NO = 999
REV_AT_EPOCH   = 67834
BSTAR          = .11242118E-3
MEAN_MOTION_DOT = .179E-5
MEAN_MOTION_DDOT = 0

CCSDS_OMM_VERS = 2.0
CREATION_DATE  = 
ORIGINATOR     = 

OBJECT_NAME    = ARIANE 40 R/B
OBJECT_ID      = 1993-061H
CENTER_NAME    = EARTH
REF_FRAME      = TEME
TIME_SYSTEM    = UTC
MEAN_ELEMENT_THEORY = SGP/SGP4

EPOCH          = 2026-03-01T04:18:06.386112
MEAN_MOTION    = 14.32855640
ECCENTRICITY   = .00097249
INCLINATION    = 98.4935
RA_OF_ASC_NODE = 129.2343
ARG_OF_PERICENTER = 313.1801
MEAN_ANOMALY   = 46.8570

EPHEMERIS_TYPE = 0
CLASSIFICATION_TYPE = U
NORAD_CAT_ID   = 22830
ELEMENT_SET_NO = 999
REV_AT_EPOCH   = 69288
BSTAR          = .96543651E-4
MEAN_MOTION_DOT = .22E-5
MEAN_MOTION_DDOT = 0

CCSDS_OMM_VERS = 2.0
CREATION_DATE  = 
ORIGINATOR     = 

OBJECT_NAME    = COSMOS 2278
OBJECT_ID      = 1994-023A
CENTER_NAME    = EARTH
REF_FRAME      = TEME
TIME_SYSTEM    = UTC
MEAN_ELEMENT_THEORY = SGP/SGP4

EPOCH          = 2026-03-01T07:45:10.709568
MEAN_MOTION    = 14.14373765
ECCENTRICITY   = .00075665
INCLINATION    = 71.0537
RA_OF_ASC_NODE = 192.5999
ARG_OF_PERICENTER = 30.3423
MEAN_ANOMALY   = 329.8136

EPHEMERIS_TYPE = 0
CLASSIFICATION_TYPE = U
NORAD_CAT_ID   = 23087
ELEMENT_SET_NO = 999
REV_AT_EPOCH   = 64362
BSTAR          = .21445988E-3
MEAN_MOTION_DOT = .363E-5
MEAN_MOTION_DDOT = 0

CCSDS_OMM_VERS = 2.0
CREATION_DATE  = 
ORIGINATOR     = 

OBJECT_NAME    = SL-16 R/B
OBJECT_ID      = 1994-023B
CENTER_NAME    = EARTH
REF_FRAME      = TEME
TIME_SYSTEM    = UTC
MEAN_ELEMENT_THEORY = SGP/SGP4

EPOCH          = 2026-03-01T07:15:43.152192
MEAN_MOTION    = 14.15013469
ECCENTRICITY   = .00055095
INCLINATION    = 70.9987
RA_OF_ASC_NODE = 88.5024
ARG_OF_PERICENTER = 293.6233
MEAN_ANOMALY   = 66.4311

EPHEMERIS_TYPE = 0
CLASSIFICATION_TYPE = U
NORAD_CAT_ID   = 23088
ELEMENT_SET_NO = 999
REV_AT_EPOCH   = 64490
BSTAR          = .9297939E-5
MEAN_MOTION_DOT = -.3E-6
MEAN_MOTION_DDOT = 0

CCSDS_OMM_VERS = 2.0
CREATION_DATE  = 
ORIGINATOR     = 

OBJECT_NAME    = SL-16 R/B
OBJECT_ID      = 1994-074B
CENTER_NAME    = EARTH
REF_FRAME      = TEME
TIME_SYSTEM    = UTC
MEAN_ELEMENT_THEORY = SGP/SGP4

EPOCH          = 2026-03-01T01:29:10.516128
MEAN_MOTION    = 14.79396099
ECCENTRICITY   = .0005241
INCLINATION    = 97.7121
RA_OF_ASC_NODE = 91.2287
ARG_OF_PERICENTER = 243.8930
MEAN_ANOMALY   = 143.1276

EPHEMERIS_TYPE = 0
CLASSIFICATION_TYPE = U
NORAD_CAT_ID   = 23343
ELEMENT_SET_NO = 999
REV_AT_EPOCH   = 68597
BSTAR          = .79463739E-4
MEAN_MOTION_DOT = .543E-5
MEAN_MOTION_DDOT = 0

CCSDS_OMM_VERS = 2.0
CREATION_DATE  = 
ORIGINATOR     = 

OBJECT_NAME    = SL-16 R/B
OBJECT_ID      = 1994-077B
CENTER_NAME    = EARTH
REF_FRAME      = TEME
TIME_SYSTEM    = UTC
MEAN_ELEMENT_THEORY = SGP/SGP4

EPOCH          = 2026-03-01T06:53:56.655456
MEAN_MOTION    = 14.15563078
ECCENTRICITY   = .0003548
INCLINATION    = 70.9849
RA_OF_ASC_NODE = 10.1639
ARG_OF_PERICENTER = 222.9303
MEAN_ANOMALY   = 137.1544

EPHEMERIS_TYPE = 0
CLASSIFICATION_TYPE = U
NORAD_CAT_ID   = 23405
ELEMENT_SET_NO = 999
REV_AT_EPOCH   = 61504
BSTAR          = -.93110858E-4
MEAN_MOTION_DOT = -.23E-5
MEAN_MOTION_DDOT = 0

CCSDS_OMM_VERS = 2.0
CREATION_DATE  = 
ORIGINATOR     = 

OBJECT_NAME    = ARIANE 40+ R/B
OBJECT_ID      = 1995-021B
CENTER_NAME    = EARTH
REF_FRAME      = TEME
TIME_SYSTEM    = UTC
MEAN_ELEMENT_THEORY = SGP/SGP4

EPOCH          = 2026-03-01T04:46:29.540064
MEAN_MOTION    = 14.39765130
ECCENTRICITY   = .00072743
INCLINATION    = 98.4515
RA_OF_ASC_NODE = 131.7960
ARG_OF_PERICENTER = 159.1383
MEAN_ANOMALY   = 259.9947

EPHEMERIS_TYPE = 0
CLASSIFICATION_TYPE = U
NORAD_CAT_ID   = 23561
ELEMENT_SET_NO = 999
REV_AT_EPOCH   = 61802
BSTAR          = .11399785E-3
MEAN_MOTION_DOT = .314E-5
MEAN_MOTION_DDOT = 0

CCSDS_OMM_VERS = 2.0
CREATION_DATE  = 
ORIGINATOR     = 

OBJECT_NAME    = SL-16 R/B
OBJECT_ID      = 1995-058B
CENTER_NAME    = EARTH
REF_FRAME      = TEME
TIME_SYSTEM    = UTC
MEAN_ELEMENT_THEORY = SGP/SGP4

EPOCH          = 2026-02-28T19:11:05.090208
MEAN_MOTION    = 14.15492891
ECCENTRICITY   = .00110738
INCLINATION    = 71.0208
RA_OF_ASC_NODE = 198.9183
ARG_OF_PERICENTER = 141.5555
MEAN_ANOMALY   = 218.6359

EPHEMERIS_TYPE = 0
CLASSIFICATION_TYPE = U
NORAD_CAT_ID   = 23705
ELEMENT_SET_NO = 999
REV_AT_EPOCH   = 56659
BSTAR          = -.61507515E-4
MEAN_MOTION_DOT = -.168E-5
MEAN_MOTION_DDOT = 0

CCSDS_OMM_VERS = 2.0
CREATION_DATE  = 
ORIGINATOR     = 

OBJECT_NAME    = SL-16 R/B
OBJECT_ID      = 1996-051B
CENTER_NAME    = EARTH
REF_FRAME      = TEME
TIME_SYSTEM    = UTC
MEAN_ELEMENT_THEORY = SGP/SGP4

EPOCH          = 2026-03-01T07:31:12.551808
MEAN_MOTION    = 14.12413139
ECCENTRICITY   = .00158381
INCLINATION    = 70.7592
RA_OF_ASC_NODE = 192.9669
ARG_OF_PERICENTER = 160.2848
MEAN_ANOMALY   = 199.8888

EPHEMERIS_TYPE = 0
CLASSIFICATION_TYPE = U
NORAD_CAT_ID   = 24298
ELEMENT_SET_NO = 999
REV_AT_EPOCH   = 52046
BSTAR          = .6876963E-4
MEAN_MOTION_DOT = .78E-6
MEAN_MOTION_DDOT = 0

CCSDS_OMM_VERS = 2.0
CREATION_DATE  = 
ORIGINATOR     = 

OBJECT_NAME    = ORBVIEW 2 (SEASTAR)
OBJECT_ID      = 1997-037A
CENTER_NAME    = EARTH
REF_FRAME      = TEME
TIME_SYSTEM    = UTC
MEAN_ELEMENT_THEORY = SGP/SGP4

EPOCH          = 2026-03-01T01:17:12.977952
MEAN_MOTION    = 14.35486918
ECCENTRICITY   = .00032138
INCLINATION    = 98.8552
RA_OF_ASC_NODE = 224.1374
ARG_OF_PERICENTER = 89.4035
MEAN_ANOMALY   = 270.7518

EPHEMERIS_TYPE = 0
CLASSIFICATION_TYPE = U
NORAD_CAT_ID   = 24883
ELEMENT_SET_NO = 999
REV_AT_EPOCH   = 50723
BSTAR          = .13484014E-3
MEAN_MOTION_DOT = .341E-5
MEAN_MOTION_DDOT = 0

